INTELSAT 36 (IS-36)     
1 41747U 16053A   26064.55705715 -.00000031  00000+0  00000+0 0  9994
2 41747   0.0200  99.8975 0001513 233.3854  99.0273  1.00269299 34917
INTELSAT 33E (IS-33E)   
1 41748U 16053B   26065.81261677 -.00000177  00000+0  00000+0 0  9990
2 41748   1.3099  85.7592 0024278 190.0091 267.7936  1.00164971 35228
INSAT-3DR               
1 41752U 16054A   26065.54364230 -.00000081  00000+0  00000+0 0  9999
2 41752   0.0528  95.2916 0013059 186.8450 151.8186  1.00272687 34783
GSAT-18                 
1 41793U 16060A   26065.60877939 -.00000080  00000+0  00000+0 0  9992
2 41793   0.0167 151.1651 0003335 248.8474  57.4400  1.00271796 34494
SKY MUSTER 2 (NBN1B)    
1 41794U 16060B   26064.54056784  .00000000  00000+0  00000+0 0  9993
2 41794   0.0200 162.1050 0001634 199.1792 141.3969  1.00267970 34480
HIMAWARI-9              
1 41836U 16064A   26065.82336351 -.00000278  00000+0  00000+0 0  9995
2 41836   0.0138 164.4008 0001263 214.7480 222.5760  1.00271706 34181
SHIJIAN-17 (SJ-17)      
1 41838U 16065A   26064.84834878  .00000102  00000+0  00000+0 0  9991
2 41838   5.4902  73.8481 0001020 311.6140 111.7929  0.99862123 34171
YZ-2 R/B                
1 41840U 16065C   26065.73515660 -.00000204  00000+0  00000+0 0  9992
2 41840   9.0996  67.6376 0467043 229.6405 126.3108  0.93474100 31899
GOES 16                 
1 41866U 16071A   26065.56084899 -.00000095  00000+0  00000+0 0  9991
2 41866   0.1362  89.1476 0002391 221.4894 310.8421  1.00271524 34074
TIANLIAN 1-04           
1 41869U 16072A   26065.75931655  .00000027  00000+0  00000+0 0  9991
2 41869   0.6024  83.5437 0040702  95.4447  75.5926  1.00273770 34275
WGS F8 (USA 272)        
1 41879U 16075A   26064.93517031 -.00000209  00000+0  00000+0 0  9995
2 41879   0.0105 184.3362 0000317 243.3560 222.4244  1.00270339 33784
FENGYUN 4A              
1 41882U 16077A   26065.81998348 -.00000360  00000+0  00000+0 0  9991
2 41882   2.0622  81.3883 0007272 135.0583   6.9078  1.00278241 33901
ECHOSTAR 19             
1 41893U 16079A   26064.15391735 -.00000147  00000+0  00000+0 0  9991
2 41893   0.0119 113.9273 0001548 231.2456 136.0238  1.00272018 33667
JCSAT-110A (JCSAT-15)   
1 41903U 16082A   26065.63045363 -.00000354  00000+0  00000+0 0  9994
2 41903   0.0182 146.4938 0000897 236.3316 118.5368  1.00270690 33736
STAR ONE D1             
1 41904U 16082B   26065.56492235 -.00000215  00000+0  00000+0 0  9997
2 41904   0.0251  99.1860 0002186 251.6455 292.8073  1.00270668 33744
TJS-2                   
1 41911U 17001A   26065.59482248 -.00000010  00000+0  00000+0 0  9996
2 41911   0.5682  86.9079 0001771 255.0108 103.0541  1.00272374 33685
YZ-1 R/B                
1 41929U 15019C   26066.68083993 -.00000549  00000+0  00000+0 0  9994
2 41929  11.8076 106.0569 6832609 296.2511 358.7926  0.27916977 10499
